EUTELSAT QUANTUM        
1 49056U 21069B   26021.15953743  .00000140  00000+0  00000+0 0  9993
2 49056   0.0105  11.1835 0003234 291.8460 282.6188  1.00271852 16450
EUTELSAT KONNECT VHTS   
1 53765U 22110A   26021.36459199  .00000031  00000+0  00000+0 0  9991
2 53765   0.0548  99.0836 0002983 174.7377 340.8723  1.00268252  5365
EUTELSAT HOTBIRD 13F    
1 54048U 22134A   26021.36667201  .00000101  00000+0  00000+0 0  9995
2 54048   0.0619 278.7378 0002013  84.3426 262.6395  1.00269803 11907
EUTELSAT HOTBIRD 13G    
1 54225U 22146A   26021.36667201  .00000101  00000+0  00000+0 0  9995
2 54225   0.0521 238.9278 0001986 302.0187  84.7824  1.00270485  5995
EUTELSAT 10B            
1 54259U 22157A   26021.36606534  .00000082  00000+0  00000+0 0  9994
2 54259   0.0557  96.4155 0000785  27.7470 138.3612  1.00270077 11551
EUTELSAT 36D            
1 59346U 24059A   26021.29985161  .00000170  00000+0  00000+0 0  9995
2 59346   0.0173  64.0356 0000133 285.9828 274.4309  1.00272714  6675
